[{"OBJECT_NAME":"OBJECT C","OBJECT_ID":"2024-085C","EPOCH":"2026-03-09T22:49:58.289376","MEAN_MOTION":15.31893958,"ECCENTRICITY":0.00283931,"INCLINATION":97.3357,"RA_OF_ASC_NODE":145.6975,"ARG_OF_PERICENTER":37.3887,"MEAN_ANOMALY":322.9323,"EPHEMERIS_TYPE":0,"CLASSIFICATION_TYPE":"U","NORAD_CAT_ID":59679,"ELEMENT_SET_NO":999,"REV_AT_EPOCH":10244,"BSTAR":0.00039740634,"MEAN_MOTION_DOT":0.0001232,"MEAN_MOTION_DDOT":0},{"OBJECT_NAME":"STARLINK-32373","OBJECT_ID":"2024-154W","EPOCH":"2026-03-09T21:27:39.045024","MEAN_MOTION":15.30190008,"ECCENTRICITY":0.00010077,"INCLINATION":53.1592,"RA_OF_ASC_NODE":283.0767,"ARG_OF_PERICENTER":104.6182,"MEAN_ANOMALY":255.493,"EPHEMERIS_TYPE":0,"CLASSIFICATION_TYPE":"U","NORAD_CAT_ID":60923,"ELEMENT_SET_NO":999,"REV_AT_EPOCH":8637,"BSTAR":1.812474e-5,"MEAN_MOTION_DOT":1.78e-6,"MEAN_MOTION_DDOT":0}]
